{
    "links": {
        "self": "http://www.neowsapp.com/rest/v1/neo/3785724?api_key=iIulBulltgU6a56xZRHN4H3l9WmuAYTsLGpBGhQ2"
    },
    "id": "3785724",
    "neo_reference_id": "3785724",
    "name": "(2017 SZ32)",
    "designation": "2017 SZ32",
    "nasa_jpl_url": "http://ssd.jpl.nasa.gov/sbdb.cgi?sstr=3785724",
    "absolute_magnitude_h": 29.234,
    "estimated_diameter": {
        "kilometers": {
            "estimated_diameter_min": 0.0037822913,
            "estimated_diameter_max": 0.0084574605
        },
        "meters": {
            "estimated_diameter_min": 3.7822913247,
            "estimated_diameter_max": 8.4574605127
        },
        "miles": {
            "estimated_diameter_min": 0.0023502061,
            "estimated_diameter_max": 0.0052552207
        },
        "feet": {
            "estimated_diameter_min": 12.4090926697,
            "estimated_diameter_max": 27.7475747485
        }
    },
    "is_potentially_hazardous_asteroid": false,
    "close_approach_data": [
        {
            "close_approach_date": "1968-09-24",
            "close_approach_date_full": "1968-Sep-24 10:46",
            "epoch_date_close_approach": -40050840000,
            "relative_velocity": {
                "kilometers_per_second": "24.9966071969",
                "kilometers_per_hour": "89987.7859088861",
                "miles_per_hour": "55914.9106387742"
            },
            "miss_distance": {
                "astronomical": "0.0933519162",
                "lunar": "36.3138954018",
                "kilometers": "13965247.823938494",
                "miles": "8677602.6120154572"
            },
            "orbiting_body": "Earth"
        },
        {
            "close_approach_date": "2017-08-02",
            "close_approach_date_full": "2017-Aug-02 21:03",
            "epoch_date_close_approach": 1501707780000,
            "relative_velocity": {
                "kilometers_per_second": "15.7800495597",
                "kilometers_per_hour": "56808.1784149132",
                "miles_per_hour": "35298.3928600887"
            },
            "miss_distance": {
                "astronomical": "0.0645256704",
                "lunar": "25.1004857856",
                "kilometers": "9652902.852162048",
                "miles": "5998035.6997223424"
            },
            "orbiting_body": "Merc"
        },
        {
            "close_approach_date": "2017-09-20",
            "close_approach_date_full": "2017-Sep-20 11:10",
            "epoch_date_close_approach": 1505905800000,
            "relative_velocity": {
                "kilometers_per_second": "22.1561552326",
                "kilometers_per_hour": "79762.1588373888",
                "miles_per_hour": "49561.1036398208"
            },
            "miss_distance": {
                "astronomical": "0.0012940669",
                "lunar": "0.5033920241",
                "kilometers": "193589.651877503",
                "miles": "120291.0317074214"
            },
            "orbiting_body": "Moon"
        },
        {
            "close_approach_date": "2017-09-20",
            "close_approach_date_full": "2017-Sep-20 15:49",
            "epoch_date_close_approach": 1505922540000,
            "relative_velocity": {
                "kilometers_per_second": "22.3311225308",
                "kilometers_per_hour": "80392.0411109894",
                "miles_per_hour": "49952.4879892145"
            },
            "miss_distance": {
                "astronomical": "0.0013740314",
                "lunar": "0.5344982146",
                "kilometers": "205552.170753118",
                "miles": "127724.1962563084"
            },
            "orbiting_body": "Earth"
        }
    ],
    "orbital_data": {
        "orbit_id": "1",
        "orbit_determination_date": "2017-10-14 06:19:04",
        "first_observation_date": "2017-09-21",
        "last_observation_date": "2017-09-22",
        "data_arc_in_days": 1,
        "observations_used": 15,
        "orbit_uncertainty": "8",
        "minimum_orbit_intersection": ".00114365",
        "jupiter_tisserand_invariant": "4.234",
        "epoch_osculation": "2458018.5",
        "eccentricity": ".6696832551749404",
        "semi_major_axis": "1.510680174380582",
        "inclination": "9.514116726240559",
        "ascending_node_longitude": "357.2874425881175",
        "orbital_period": "678.1991192716694",
        "perihelion_distance": ".4990029576731472",
        "perihelion_argument": "255.6723687676208",
        "aphelion_distance": "2.522357391088017",
        "perihelion_time": "2457966.792150986013",
        "mean_anomaly": "27.44743411791234",
        "mean_motion": ".530817557514098",
        "equinox": "J2000",
        "orbit_class": {
            "orbit_class_type": "APO",
            "orbit_class_description": "Near-Earth asteroid orbits which cross the Earth’s orbit similar to that of 1862 Apollo",
            "orbit_class_range": "a (semi-major axis) > 1.0 AU; q (perihelion) < 1.017 AU"
        }
    },
    "is_sentry_object": false
}